BEIDOU-2 IGSO-1 (C06)   
1 36828U 10036A   24012.76171550 -.00000097  00000+0  00000+0 0  9993
2 36828  54.2458 170.9838 0038775 191.6540 132.0211  1.00271905 49311
BEIDOU-2 G4 (C04)       
1 37210U 10057A   24013.60503729 -.00000106  00000+0  00000+0 0  9994
2 37210   1.4756  65.8647 0007419 192.7004 231.8857  1.00271707 48414
BEIDOU-2 IGSO-2 (C07)   
1 37256U 10068A   24013.62205755 -.00000174  00000+0  00000+0 0  9991
2 37256  49.1651 282.7150 0031773 214.8585 303.5886  1.00299720 47914
BEIDOU-2 IGSO-3 (C08)   
1 37384U 11013A   24013.53465610 -.00000160  00000+0  00000+0 0  9997
2 37384  61.1273  48.6156 0029071 183.4674 178.4690  1.00297545 46782
BEIDOU-2 IGSO-4 (C09)   
1 37763U 11038A   24009.43591229  .00000066  00000+0  00000+0 0  9999
2 37763  54.5532 173.5941 0116672 226.4320 318.6048  1.00292143 45713
BEIDOU-2 IGSO-5 (C10)   
1 37948U 11073A   24013.64445193 -.00000128  00000+0  00000+0 0  9999
2 37948  49.2945 282.3930 0094130 221.0799 295.4083  1.00286167 44257
BEIDOU-2 G5 (C05)       
1 38091U 12008A   24013.52551872  .00000063  00000+0  00000+0 0  9994
2 38091   2.0250  70.2838 0008933 216.7765  73.3144  1.00273280 43481
BEIDOU-2 M3 (C11)       
1 38250U 12018A   24013.21557981 -.00000070  00000+0  00000+0 0  9994
2 38250  56.4384 334.5287 0024546 266.0924  93.6220  1.86231085 79442
BEIDOU-2 M4 (C12)       
1 38251U 12018B   24013.14646064 -.00000069  00000+0  00000+0 0  9996
2 38251  56.3474 333.8145 0015552 271.0140  88.8031  1.86231844 79449
BEIDOU-2 M6 (C14)       
1 38775U 12050B   24012.85615334 -.00000008  00000+0  00000+0 0  9999
2 38775  55.7894  92.3937 0012127 328.3042  31.6702  1.86230929 76808
BEIDOU-2 G6 (C02)       
1 38953U 12059A   24013.53056604 -.00000168  00000+0  00000+0 0  9998
2 38953   2.1624  81.4937 0009552 289.4956  16.4278  1.00267709 41028
BEIDOU-3S IGSO-1S (C31) 
1 40549U 15019A   24012.73862230 -.00000173  00000+0  00000+0 0  9998
2 40549  50.8636 306.0389 0035403 195.2788 331.5812  1.00283253 32187
BEIDOU-3S M2S (C58)     
1 40748U 15037A   24013.34803124 -.00000070  00000+0  00000+0 0  9990
2 40748  55.5835 332.3261 0011735 263.3121  96.5512  1.86232888 57625
BEIDOU-3S M1S (C57)     
1 40749U 15037B   24013.08132731 -.00000070  00000+0  00000+0 0  9991
2 40749  55.5870 332.3217 0006926 322.4438  37.5040  1.86232798 57621
BEIDOU-3S IGSO-2S (C56) 
1 40938U 15053A   24013.61663177 -.00000084  00000+0  00000+0 0  9996
2 40938  50.6003 269.2219 0045957 192.1884 326.1776  1.00253205 30478
BEIDOU-2 IGSO-6 (C13)   
1 41434U 16021A   24007.06785706 -.00000137  00000+0  00000+0 0  9998
2 41434  58.9308  46.9932 0050003 224.7399 312.7488  1.00258973 28534
BEIDOU-2 G7 (C03)       
1 41586U 16037A   24013.64780360 -.00000348  00000+0  00000+0 0  9999
2 41586   1.5350  67.1317 0009174 317.0540  72.1511  1.00275443 27918
BEIDOU-3 M1 (C19)       
1 43001U 17069A   24012.62234970 -.00000009  00000+0  00000+0 0  9991
2 43001  55.9400  92.4779 0010211 290.0894  69.8471  1.86231075 42091
BEIDOU-3 M2 (C20)       
1 43002U 17069B   24013.63320933 -.00000008  00000+0  00000+0 0  9998
2 43002  55.9402  92.4798 0007455 312.0065  47.9797  1.86230938 42103
BEIDOU-3 M7 (C27)       
1 43107U 18003A   24013.38329789 -.00000072  00000+0  00000+0 0  9994
2 43107  55.0410 332.9839 0003579  45.3193 314.7066  1.86232194 40858
BEIDOU-3 M8 (C28)       
1 43108U 18003B   24013.32246772 -.00000071  00000+0  00000+0 0  9998
2 43108  55.0340 332.9723 0004582 273.5408  86.4035  1.86230675 40864
BEIDOU-3 M4 (C22)       
1 43207U 18018A   24012.69038904 -.00000008  00000+0  00000+0 0  9999
2 43207  55.8989  92.5700 0004250 336.7382  23.2890  1.86231013 40236
BEIDOU-3 M3 (C21)       
1 43208U 18018B   24013.29395678 -.00000008  00000+0  00000+0 0  9991
2 43208  55.8988  92.5542 0007647 299.1796  60.7926  1.86231170 40245
BEIDOU-3 M9 (C29)       
1 43245U 18029A   24013.51611961 -.00000071  00000+0  00000+0 0  9995
2 43245  54.9304 330.7019 0001901 297.1488  62.8302  1.86232164 39408
BEIDOU-3 M10 (C30)      
1 43246U 18029B   24012.90902806 -.00000069  00000+0  00000+0 0  9996
2 43246  54.9275 330.7510 0004765 349.4831  10.5041  1.86232543 39373
BEIDOU-2 IGSO-7 (C16)   
1 43539U 18057A   24010.86206958 -.00000075  00000+0  00000+0 0  9997
2 43539  55.1290 170.7303 0064938 228.9651 129.2611  1.00244014 20237
BEIDOU-3 M5 (C23)       
1 43581U 18062A   24013.12994224  .00000090  00000+0  00000+0 0  9998
2 43581  54.1539 212.4512 0001749 350.5273   9.5093  1.86228538 37136
BEIDOU-3 M6 (C24)       
1 43582U 18062B   24012.99649795  .00000091  00000+0  00000+0 0  9994
2 43582  54.1537 212.4453 0007223  39.1281 320.9652  1.86229533 37138
BEIDOU-3 M12 (C26)      
1 43602U 18067A   24011.85770021  .00000102  00000+0  00000+0 0  9996
2 43602  54.2427 211.1513 0008251  30.7154 329.3806  1.86231521 36594
BEIDOU-3 M11 (C25)      
1 43603U 18067B   24013.06542854  .00000091  00000+0  00000+0 0  9990
2 43603  54.2397 211.0756 0004947  27.9871 332.0770  1.86231441 36649
BEIDOU-3 M13 (C32)      
1 43622U 18072A   24012.48814009 -.00000009  00000+0  00000+0 0  9996
2 43622  55.8690  92.1126 0006963 284.0080  75.9610  1.86231015 36148
BEIDOU-3 M14 (C33)      
1 43623U 18072B   24013.42750512 -.00000008  00000+0  00000+0 0  9999
2 43623  55.8715  92.0740 0004203 305.1328  54.8775  1.86230998 36151
BEIDOU-3 M16 (C35)      
1 43647U 18078A   24013.05396372 -.00000070  00000+0  00000+0 0  9999
2 43647  54.8265 330.8293 0007751   3.3365 356.6660  1.86232080 35655
BEIDOU-3 M15 (C34)      
1 43648U 18078B   24013.18307300 -.00000070  00000+0  00000+0 0  9997
2 43648  54.8222 330.8282 0004674   4.7567 355.2454  1.86231936 35674
BEIDOU-3 G1 (C59)       
1 43683U 18085A   24013.61320556 -.00000273  00000+0  00000+0 0  9995
2 43683   1.8174 116.5715 0002031 335.2099  21.4903  1.00276039 19175
BEIDOU-3 M17 (C36)      
1 43706U 18093A   24012.79442313  .00000093  00000+0  00000+0 0  9993
2 43706  54.2366 212.3894 0006283 295.3927  64.5848  1.86228160 35033
BEIDOU-3 M18 (C37)      
1 43707U 18093B   24013.19794417  .00000089  00000+0  00000+0 0  9999
2 43707  54.2375 212.3675 0006124 336.5027  23.5086  1.86229654 35032
BEIDOU-3 IGSO-1 (C38)   
1 44204U 19023A   23359.85561811 -.00000224  00000+0  00000+0 0  9993
2 44204  57.3835  47.0551 0023834 204.1671 266.3544  1.00248909 17270
BEIDOU-2 G8 (C01)       
1 44231U 19027A   24013.63855043 -.00000242  00000+0  00000+0 0  9994
2 44231   1.5645  72.5509 0004097 178.0477 236.4256  1.00268918 17202
BEIDOU-3 IGSO-2 (C39)   
1 44337U 19035A   24013.32251733 -.00000111  00000+0  00000+0 0  9997
2 44337  55.1677 166.6367 0031425 200.3106 339.8119  1.00289140 16787
BEIDOU-3 M24 (C46)      
1 44542U 19061A   24013.26860349  .00000089  00000+0  00000+0 0  9999
2 44542  54.4640 212.6289 0008711  12.3101 347.7506  1.86231292 29297
BEIDOU-3 M23 (C45)      
1 44543U 19061B   24013.12845001  .00000090  00000+0  00000+0 0  9995
2 44543  54.4625 212.6028 0005469  11.7596 166.3836  1.86231612 29297
BEIDOU-3 IGSO-3 (C40)   
1 44709U 19073A   24013.17029570 -.00000175  00000+0  00000+0 0  9997
2 44709  56.3144 290.3761 0034830 182.5221 177.5307  1.00297171 15572
BEIDOU-3 M22 (C44)      
1 44793U 19078A   24013.11412085 -.00000070  00000+0  00000+0 0  9990
2 44793  54.6748 330.7784 0006608   8.2257 351.7827  1.86231847 28147
BEIDOU-3 M21 (C43)      
1 44794U 19078B   24013.24434208 -.00000070  00000+0  00000+0 0  9996
2 44794  54.6483 330.7532 0004712 357.0547   2.9405  1.86232337 28159
BEIDOU-3 M19 (C41)      
1 44864U 19090A   24013.50491721 -.00000009  00000+0  00000+0 0  9992
2 44864  55.8039  92.2584 0018322 274.4042  93.6967  1.86231335 27749
BEIDOU-3 M20 (C42)      
1 44865U 19090B   24013.31743147 -.00000008  00000+0  00000+0 0  9993
2 44865  55.8056  92.2977 0015808 286.4980  45.6701  1.86231299 27714
BEIDOU-3 G2 (C60)       
1 45344U 20017A   24013.52978282 -.00000135  00000+0  00000+0 0  9991
2 45344   2.1464  22.9044 0002903 253.0321 107.3167  1.00271391 14374
BEIDOU-3 G3 (C61)       
1 45807U 20040A   24013.64780355 -.00000347  00000+0  00000+0 0  9991
2 45807   0.5897  14.4895 0009049 300.0516 141.8593  1.00272099 13198
BEIDOU-3 G4             
1 56564U 23066A   24013.60519586 -.00000102  00000+0  00000+0 0  9995
2 56564   2.5125 288.3042 0003178 228.8861 333.3526  1.00271124  2515
BEIDOU-3 M25            
1 58654U 23207A   24010.60278281 -.00000020  00000+0  00000+0 0  9994
2 58654  54.9818  92.4790 0117519 178.9635 181.0945  1.82957602   298
BEIDOU-3 M26            
1 58655U 23207B   24005.84694770 -.00000037  00000+0  00000+0 0  9998
2 58655  54.6471  92.7627 0316732  68.9835  87.0455  1.85607573   193
